IRIDIUM 112             
1 41925U 17003J   24139.49390924  .00000218  00000+0  70612-4 0  9991
2 41925  86.3994  45.7786 0002522  81.8989 278.2493 14.34217252384419
IRIDIUM 111             
1 41926U 17003K   24139.13237533  .00000719  00000+0  24964-3 0  9993
2 41926  86.3994  45.9835 0002267  76.4970 283.6478 14.34222266384383
IRIDIUM 113             
1 42803U 17039A   24138.90303891  .00000369  00000+0  12476-3 0  9998
2 42803  86.3942 279.8453 0002159  89.2696 270.8747 14.34217654362212
IRIDIUM 123             
1 42804U 17039B   24138.94452235  .00000252  00000+0  83064-4 0  9993
2 42804  86.3937 311.3474 0002129  84.4138 275.7300 14.34217362360984
IRIDIUM 120             
1 42805U 17039C   24138.89668625  .00000668  00000+0  23156-3 0  9996
2 42805  86.3932 279.7289 0002003  95.3513 264.7912 14.34223047362201
IRIDIUM 115             
1 42806U 17039D   24139.18322350  .00000091  00000+0  21121-4 0  9993
2 42806  86.4466 279.6289 0002250  86.9227 273.2232 14.43271498364649
IRIDIUM 118             
1 42807U 17039E   24138.90646704  .00000264  00000+0  87138-4 0  9997
2 42807  86.3934 311.3647 0002304  92.2374 267.9085 14.34219236360974
IRIDIUM 117             
1 42808U 17039F   24139.55341261  .00000345  00000+0  11627-3 0  9999
2 42808  86.3936 311.0586 0001989  86.4006 273.7417 14.34218487361108
